{
  "type": "FeatureCollection",
  "features": [
    {
      "type": "Feature",
      "properties": {
        "norad_id": 66753,
        "name": "ICEYE-X60",
        "group": "last-30-days",
        "lat": 65.15037650267999,
        "lon": -91.61247073469606,
        "alt_km": 507.86591819968726,
        "timestamp": "2025-12-26T11:25:43.985461+00:00",
        "meta_object_name": "ICEYE-X60",
        "meta_object_id": "2025-276CR",
        "meta_epoch": "2025-12-26T04:35:55.534272",
        "meta_mean_motion": 15.17412095,
        "meta_eccentricity": 0.0001105,
        "meta_inclination": 97.4402,
        "meta_ra_of_asc_node": 71.7177,
        "meta_arg_of_pericenter": 249.7032,
        "meta_mean_anomaly": 110.4083,
        "meta_ephemeris_type": 0,
        "meta_classification_type": "U",
        "meta_norad_cat_id": 66753,
        "meta_element_set_no": 999,
        "meta_rev_at_epoch": 416,
        "meta_bstar": 0.00024824,
        "meta_mean_motion_dot": 4.896e-05,
        "meta_mean_motion_ddot": 0,
        "tle_line1": "1 66753U 25276CR  25360.19161498  .00004896  00000+0  24824-3 0  9993",
        "tle_line2": "2 66753  97.4402  71.7177 0001105 249.7032 110.4083 15.17412095  4162"
      },
      "geometry": {
        "type": "Point",
        "coordinates": [
          -91.61247073469606,
          65.15037650267999
        ]
      }
    },
    {
      "type": "Feature",
      "properties": {
        "norad_id": 66754,
        "name": "ICEYE-X61",
        "group": "last-30-days",
        "lat": 18.116046604863286,
        "lon": -105.5331330364729,
        "alt_km": 510.98709787091593,
        "timestamp": "2025-12-26T11:25:43.985470+00:00",
        "meta_object_name": "ICEYE-X61",
        "meta_object_id": "2025-276CS",
        "meta_epoch": "2025-12-26T02:48:30.019968",
        "meta_mean_motion": 15.17880162,
        "meta_eccentricity": 0.0002575,
        "meta_inclination": 97.4398,
        "meta_ra_of_asc_node": 71.6636,
        "meta_arg_of_pericenter": 180.2404,
        "meta_mean_anomaly": 179.8829,
        "meta_ephemeris_type": 0,
        "meta_classification_type": "U",
        "meta_norad_cat_id": 66754,
        "meta_element_set_no": 999,
        "meta_rev_at_epoch": 415,
        "meta_bstar": 0.0004356,
        "meta_mean_motion_dot": 8.764e-05,
        "meta_mean_motion_ddot": 0,
        "tle_line1": "1 66754U 25276CS  25360.11701412  .00008764  00000+0  43560-3 0  9998",
        "tle_line2": "2 66754  97.4398  71.6636 0002575 180.2404 179.8829 15.17880162  4150"
      },
      "geometry": {
        "type": "Point",
        "coordinates": [
          -105.5331330364729,
          18.116046604863286
        ]
      }
    },
    {
      "type": "Feature",
      "properties": {
        "norad_id": 66755,
        "name": "ICEYE-X62",
        "group": "last-30-days",
        "lat": 43.62829558992467,
        "lon": -100.83925248142673,
        "alt_km": 509.01653309040194,
        "timestamp": "2025-12-26T11:25:43.985480+00:00",
        "meta_object_name": "ICEYE-X62",
        "meta_object_id": "2025-276CT",
        "meta_epoch": "2025-12-26T02:55:13.254816",
        "meta_mean_motion": 15.17652779,
        "meta_eccentricity": 0.0001211,
        "meta_inclination": 97.4401,
        "meta_ra_of_asc_node": 71.6566,
        "meta_arg_of_pericenter": 204.8692,
        "meta_mean_anomaly": 155.2483,
        "meta_ephemeris_type": 0,
        "meta_classification_type": "U",
        "meta_norad_cat_id": 66755,
        "meta_element_set_no": 999,
        "meta_rev_at_epoch": 415,
        "meta_bstar": 0.00024728,
        "meta_mean_motion_dot": 4.911e-05,
        "meta_mean_motion_ddot": 0,
        "tle_line1": "1 66755U 25276CT  25360.12168119  .00004911  00000+0  24728-3 0  9996",
        "tle_line2": "2 66755  97.4401  71.6566 0001211 204.8692 155.2483 15.17652779  4151"
      },
      "geometry": {
        "type": "Point",
        "coordinates": [
          -100.83925248142673,
          43.62829558992467
        ]
      }
    },
    {
      "type": "Feature",
      "properties": {
        "norad_id": 66756,
        "name": "TRANSPORTER-15CU",
        "group": "last-30-days",
        "lat": 11.025493229187543,
        "lon": -106.51736903557426,
        "alt_km": 512.2810306679685,
        "timestamp": "2025-12-26T11:25:43.985496+00:00",
        "meta_object_name": "TRANSPORTER-15CU",
        "meta_object_id": "2025-276CU",
        "meta_epoch": "2025-12-26T02:46:39.353664",
        "meta_mean_motion": 15.17980462,
        "meta_eccentricity": 0.0001833,
        "meta_inclination": 97.4407,
        "meta_ra_of_asc_node": 71.6691,
        "meta_arg_of_pericenter": 150.3484,
        "meta_mean_anomaly": 209.7854,
        "meta_ephemeris_type": 0,
        "meta_classification_type": "U",
        "meta_norad_cat_id": 66756,
        "meta_element_set_no": 999,
        "meta_rev_at_epoch": 415,
        "meta_bstar": 0.00029284,
        "meta_mean_motion_dot": 5.885e-05,
        "meta_mean_motion_ddot": 0,
        "tle_line1": "1 66756U 25276CU  25360.11573326  .00005885  00000+0  29284-3 0  9999",
        "tle_line2": "2 66756  97.4407  71.6691 0001833 150.3484 209.7854 15.17980462  4151"
      },
      "geometry": {
        "type": "Point",
        "coordinates": [
          -106.51736903557426,
          11.025493229187543
        ]
      }
    },
    {
      "type": "Feature",
      "properties": {
        "norad_id": 66757,
        "name": "TRANSPORTER-15CV",
        "group": "last-30-days",
        "lat": 1.4293554453220956,
        "lon": -107.78278298840625,
        "alt_km": 514.9842624923986,
        "timestamp": "2025-12-26T11:25:43.985508+00:00",
        "meta_object_name": "TRANSPORTER-15CV",
        "meta_object_id": "2025-276CV",
        "meta_epoch": "2025-12-26T02:44:13.038720",
        "meta_mean_motion": 15.18305359,
        "meta_eccentricity": 0.0002714,
        "meta_inclination": 97.4409,
        "meta_ra_of_asc_node": 71.6741,
        "meta_arg_of_pericenter": 319.0723,
        "meta_mean_anomaly": 41.0307,
        "meta_ephemeris_type": 0,
        "meta_classification_type": "U",
        "meta_norad_cat_id": 66757,
        "meta_element_set_no": 999,
        "meta_rev_at_epoch": 415,
        "meta_bstar": 0.0066613,
        "meta_mean_motion_dot": 0.00139085,
        "meta_mean_motion_ddot": 0,
        "tle_line1": "1 66757U 25276CV  25360.11403980  .00139085  00000+0  66613-2 0  9994",
        "tle_line2": "2 66757  97.4409  71.6741 0002714 319.0723  41.0307 15.18305359  4156"
      },
      "geometry": {
        "type": "Point",
        "coordinates": [
          -107.78278298840625,
          1.4293554453220956
        ]
      }
    },
    {
      "type": "Feature",
      "properties": {
        "norad_id": 66758,
        "name": "TRANSPORTER-15CW",
        "group": "last-30-days",
        "lat": 0.3010631682314699,
        "lon": -107.94018681602059,
        "alt_km": 513.8207414317503,
        "timestamp": "2025-12-26T11:25:43.985518+00:00",
        "meta_object_name": "TRANSPORTER-15CW",
        "meta_object_id": "2025-276CW",
        "meta_epoch": "2025-12-26T02:43:51.168288",
        "meta_mean_motion": 15.18113337,
        "meta_eccentricity": 0.0001562,
        "meta_inclination": 97.4386,
        "meta_ra_of_asc_node": 71.6642,
        "meta_arg_of_pericenter": 135.3373,
        "meta_mean_anomaly": 224.7987,
        "meta_ephemeris_type": 0,
        "meta_classification_type": "U",
        "meta_norad_cat_id": 66758,
        "meta_element_set_no": 999,
        "meta_rev_at_epoch": 415,
        "meta_bstar": 0.00032268,
        "meta_mean_motion_dot": 6.516e-05,
        "meta_mean_motion_ddot": 0,
        "tle_line1": "1 66758U 25276CW  25360.11378667  .00006516  00000+0  32268-3 0  9990",
        "tle_line2": "2 66758  97.4386  71.6642 0001562 135.3373 224.7987 15.18113337  4158"
      },
      "geometry": {
        "type": "Point",
        "coordinates": [
          -107.94018681602059,
          0.3010631682314699
        ]
      }
    },
    {
      "type": "Feature",
      "properties": {
        "norad_id": 66759,
        "name": "TRANSPORTER-15CX",
        "group": "last-30-days",
        "lat": -10.257022757527336,
        "lon": -109.32898162237103,
        "alt_km": 514.792417980876,
        "timestamp": "2025-12-26T11:25:43.985527+00:00",
        "meta_object_name": "TRANSPORTER-15CX",
        "meta_object_id": "2025-276CX",
        "meta_epoch": "2025-12-26T04:15:58.734432",
        "meta_mean_motion": 15.18207268,
        "meta_eccentricity": 0.0001428,
        "meta_inclination": 97.4397,
        "meta_ra_of_asc_node": 71.7325,
        "meta_arg_of_pericenter": 163.4762,
        "meta_mean_anomaly": 196.6519,
        "meta_ephemeris_type": 0,
        "meta_classification_type": "U",
        "meta_norad_cat_id": 66759,
        "meta_element_set_no": 999,
        "meta_rev_at_epoch": 416,
        "meta_bstar": -0.0022214,
        "meta_mean_motion_dot": -0.00045185,
        "meta_mean_motion_ddot": 0,
        "tle_line1": "1 66759U 25276CX  25360.17776313 -.00045185  00000+0 -22214-2 0  9993",
        "tle_line2": "2 66759  97.4397  71.7325 0001428 163.4762 196.6519 15.18207268  4161"
      },
      "geometry": {
        "type": "Point",
        "coordinates": [
          -109.32898162237103,
          -10.257022757527336
        ]
      }
    }
  ]
}